{
  "type": "FeatureCollection",
  "features": [
    {
      "type": "Feature",
      "properties": {
        "norad_id": 37960,
        "name": "COSMOS 2251 DEB",
        "group": "cosmos-2251-debris",
        "lat": -61.203360883011456,
        "lon": 158.78014410785727,
        "alt_km": 853.6433584708402,
        "timestamp": "2025-12-10T21:43:22.488978+00:00",
        "meta_object_name": "COSMOS 2251 DEB",
        "meta_object_id": "1993-036BPK",
        "meta_epoch": "2025-12-09T13:38:16.997856",
        "meta_mean_motion": 14.07843379,
        "meta_eccentricity": 0.024917,
        "meta_inclination": 74.0593,
        "meta_ra_of_asc_node": 192.4512,
        "meta_arg_of_pericenter": 211.9153,
        "meta_mean_anomaly": 146.6687,
        "meta_ephemeris_type": 0,
        "meta_classification_type": "U",
        "meta_norad_cat_id": 37960,
        "meta_element_set_no": 999,
        "meta_rev_at_epoch": 77361,
        "meta_bstar": 0.0012376,
        "meta_mean_motion_dot": 2.763e-05,
        "meta_mean_motion_ddot": 0,
        "tle_line1": "1 37960U 93036BPK 25343.56825229  .00002763  00000+0  12376-2 0  9990",
        "tle_line2": "2 37960  74.0593 192.4512 0249170 211.9153 146.6687 14.07843379773612"
      },
      "geometry": {
        "type": "Point",
        "coordinates": [
          158.78014410785727,
          -61.203360883011456
        ]
      }
    },
    {
      "type": "Feature",
      "properties": {
        "norad_id": 37961,
        "name": "COSMOS 2251 DEB",
        "group": "cosmos-2251-debris",
        "lat": 13.722763974860072,
        "lon": -43.41192930746741,
        "alt_km": 684.1493528042301,
        "timestamp": "2025-12-10T21:43:22.488988+00:00",
        "meta_object_name": "COSMOS 2251 DEB",
        "meta_object_id": "1993-036BPL",
        "meta_epoch": "2025-12-09T16:57:58.675104",
        "meta_mean_motion": 14.57922217,
        "meta_eccentricity": 0.00407859,
        "meta_inclination": 74.0405,
        "meta_ra_of_asc_node": 142.8725,
        "meta_arg_of_pericenter": 223.8393,
        "meta_mean_anomaly": 135.9533,
        "meta_ephemeris_type": 0,
        "meta_classification_type": "U",
        "meta_norad_cat_id": 37961,
        "meta_element_set_no": 999,
        "meta_rev_at_epoch": 80021,
        "meta_bstar": 0.0017845262,
        "meta_mean_motion_dot": 8.259e-05,
        "meta_mean_motion_ddot": 0,
        "tle_line1": "1 37961U 93036BPL 25343.70692911  .00008259  00000+0  17845-2 0  9999",
        "tle_line2": "2 37961  74.0405 142.8725 0040785 223.8393 135.9533 14.57922217800211"
      },
      "geometry": {
        "type": "Point",
        "coordinates": [
          -43.41192930746741,
          13.722763974860072
        ]
      }
    },
    {
      "type": "Feature",
      "properties": {
        "norad_id": 37966,
        "name": "COSMOS 2251 DEB",
        "group": "cosmos-2251-debris",
        "lat": -73.90426355171017,
        "lon": 139.1893629370846,
        "alt_km": 541.9716274699504,
        "timestamp": "2025-12-10T21:43:22.488999+00:00",
        "meta_object_name": "COSMOS 2251 DEB",
        "meta_object_id": "1993-036BPR",
        "meta_epoch": "2025-12-09T09:36:29.677536",
        "meta_mean_motion": 15.12084932,
        "meta_eccentricity": 0.0008975,
        "meta_inclination": 73.977,
        "meta_ra_of_asc_node": 237.4896,
        "meta_arg_of_pericenter": 112.4769,
        "meta_mean_anomaly": 247.7375,
        "meta_ephemeris_type": 0,
        "meta_classification_type": "U",
        "meta_norad_cat_id": 37966,
        "meta_element_set_no": 999,
        "meta_rev_at_epoch": 85292,
        "meta_bstar": 0.003976161,
        "meta_mean_motion_dot": 0.00069139,
        "meta_mean_motion_ddot": 0,
        "tle_line1": "1 37966U 93036BPR 25343.40034349  .00069139  00000+0  39762-2 0  9992",
        "tle_line2": "2 37966  73.9770 237.4896 0008975 112.4769 247.7375 15.12084932852920"
      },
      "geometry": {
        "type": "Point",
        "coordinates": [
          139.1893629370846,
          -73.90426355171017
        ]
      }
    },
    {
      "type": "Feature",
      "properties": {
        "norad_id": 37967,
        "name": "COSMOS 2251 DEB",
        "group": "cosmos-2251-debris",
        "lat": 49.592108398078224,
        "lon": 160.45959843638207,
        "alt_km": 823.8761531118225,
        "timestamp": "2025-12-10T21:43:22.489012+00:00",
        "meta_object_name": "COSMOS 2251 DEB",
        "meta_object_id": "1993-036BPS",
        "meta_epoch": "2025-12-09T17:08:35.965824",
        "meta_mean_motion": 14.40464206,
        "meta_eccentricity": 0.01508449,
        "meta_inclination": 74.0151,
        "meta_ra_of_asc_node": 142.9877,
        "meta_arg_of_pericenter": 282.4198,
        "meta_mean_anomaly": 76.0112,
        "meta_ephemeris_type": 0,
        "meta_classification_type": "U",
        "meta_norad_cat_id": 37967,
        "meta_element_set_no": 999,
        "meta_rev_at_epoch": 64692,
        "meta_bstar": 0.0023151814,
        "meta_mean_motion_dot": 8.402e-05,
        "meta_mean_motion_ddot": 0,
        "tle_line1": "1 37967U 93036BPS 25343.71430516  .00008402  00000+0  23152-2 0  9995",
        "tle_line2": "2 37967  74.0151 142.9877 0150844 282.4198  76.0112 14.40464206646921"
      },
      "geometry": {
        "type": "Point",
        "coordinates": [
          160.45959843638207,
          49.592108398078224
        ]
      }
    },
    {
      "type": "Feature",
      "properties": {
        "norad_id": 37968,
        "name": "COSMOS 2251 DEB",
        "group": "cosmos-2251-debris",
        "lat": 12.62691710930578,
        "lon": 91.21354377689728,
        "alt_km": 605.9085473457562,
        "timestamp": "2025-12-10T21:43:22.489033+00:00",
        "meta_object_name": "COSMOS 2251 DEB",
        "meta_object_id": "1993-036BPT",
        "meta_epoch": "2025-12-10T12:59:12.329952",
        "meta_mean_motion": 15.00519142,
        "meta_eccentricity": 0.00805995,
        "meta_inclination": 74.0006,
        "meta_ra_of_asc_node": 275.6407,
        "meta_arg_of_pericenter": 31.9786,
        "meta_mean_anomaly": 328.6254,
        "meta_ephemeris_type": 0,
        "meta_classification_type": "U",
        "meta_norad_cat_id": 37968,
        "meta_element_set_no": 999,
        "meta_rev_at_epoch": 60186,
        "meta_bstar": 0.0016056492,
        "meta_mean_motion_dot": 0.00021716,
        "meta_mean_motion_ddot": 0,
        "tle_line1": "1 37968U 93036BPT 25344.54111493  .00021716  00000+0  16056-2 0  9996",
        "tle_line2": "2 37968  74.0006 275.6407 0080599  31.9786 328.6254 15.00519142601867"
      },
      "geometry": {
        "type": "Point",
        "coordinates": [
          91.21354377689728,
          12.62691710930578
        ]
      }
    },
    {
      "type": "Feature",
      "properties": {
        "norad_id": 37971,
        "name": "COSMOS 2251 DEB",
        "group": "cosmos-2251-debris",
        "lat": 61.40442907641441,
        "lon": 76.96194178554158,
        "alt_km": 746.4354131731116,
        "timestamp": "2025-12-10T21:43:22.489044+00:00",
        "meta_object_name": "COSMOS 2251 DEB",
        "meta_object_id": "1993-036BPW",
        "meta_epoch": "2025-12-10T13:07:43.259808",
        "meta_mean_motion": 14.48584185,
        "meta_eccentricity": 0.00675879,
        "meta_inclination": 73.9941,
        "meta_ra_of_asc_node": 45.8601,
        "meta_arg_of_pericenter": 185.0765,
        "meta_mean_anomaly": 174.9719,
        "meta_ephemeris_type": 0,
        "meta_classification_type": "U",
        "meta_norad_cat_id": 37971,
        "meta_element_set_no": 999,
        "meta_rev_at_epoch": 60646,
        "meta_bstar": 0.0032808426,
        "meta_mean_motion_dot": 0.00012691,
        "meta_mean_motion_ddot": 0,
        "tle_line1": "1 37971U 93036BPW 25344.54702847  .00012691  00000+0  32808-2 0  9994",
        "tle_line2": "2 37971  73.9941  45.8601 0067587 185.0765 174.9719 14.48584185606469"
      },
      "geometry": {
        "type": "Point",
        "coordinates": [
          76.96194178554158,
          61.40442907641441
        ]
      }
    },
    {
      "type": "Feature",
      "properties": {
        "norad_id": 37975,
        "name": "COSMOS 2251 DEB",
        "group": "cosmos-2251-debris",
        "lat": 43.79585251046727,
        "lon": 131.7036817811126,
        "alt_km": 705.8500090371253,
        "timestamp": "2025-12-10T21:43:22.489054+00:00",
        "meta_object_name": "COSMOS 2251 DEB",
        "meta_object_id": "1993-036BQA",
        "meta_epoch": "2025-12-09T06:04:12.444384",
        "meta_mean_motion": 14.75750431,
        "meta_eccentricity": 0.0096458,
        "meta_inclination": 74.0034,
        "meta_ra_of_asc_node": 330.9079,
        "meta_arg_of_pericenter": 321.0366,
        "meta_mean_anomaly": 38.3883,
        "meta_ephemeris_type": 0,
        "meta_classification_type": "U",
        "meta_norad_cat_id": 37975,
        "meta_element_set_no": 999,
        "meta_rev_at_epoch": 69694,
        "meta_bstar": 0.0053103,
        "meta_mean_motion_dot": 0.00039407,
        "meta_mean_motion_ddot": 0,
        "tle_line1": "1 37975U 93036BQA 25343.25292181  .00039407  00000+0  53103-2 0  9995",
        "tle_line2": "2 37975  74.0034 330.9079 0096458 321.0366  38.3883 14.75750431696949"
      },
      "geometry": {
        "type": "Point",
        "coordinates": [
          131.7036817811126,
          43.79585251046727
        ]
      }
    }
  ]
}